NORAD_CAT_ID,OBJECT_NAME,OBJECT_TYPE,EPOCH,MEAN_MOTION,ECCENTRICITY,INCLINATION,RA_OF_ASC_NODE,ARG_OF_PERICENTER,MEAN_ANOMALY,BSTAR,MEAN_MOTION_DOT,MEAN_MOTION_DDOT,TLE_LINE0,TLE_LINE1,TLE_LINE2,SEMIMAJOR_AXIS,PERIOD,APOGEE,PERIGEE,DECAYED
55941.0,STARLINK-5914,PAYLOAD,2023-12-16 22:23:11,14.98319532,0.0002822,69.9984,176.3716,263.6522,96.4316,3.1471e-05,2.82e-06,0.0,0 STARLINK-5914,1 55941U 23037AD  23350.93276653  .00000282  00000-0  31471-4 0  9995,2 55941  69.9984 176.3716 0002822 263.6522  96.4316 14.98319532 42080,6950.225,96.108,574.052,570.129,0.0
55941.0,STARLINK-5914,PAYLOAD,2023-12-17 14:24:31,14.98323377,0.0002931,69.9982,174.6882,267.311,92.7714,5.0405e-05,5.08e-06,0.0,0 STARLINK-5914,1 55941U 23037AD  23351.60036728  .00000508  00000-0  50405-4 0  9996,2 55941  69.9982 174.6882 0002931 267.3110  92.7714 14.98323377 42182,6950.213,96.107,574.115,570.041,0.0
55941.0,STARLINK-5914,PAYLOAD,2023-12-17 19:12:55,14.98324654,0.0002889,69.9982,174.1833,266.0009,94.0819,6.5308e-05,6.86e-06,0.0,0 STARLINK-5914,1 55941U 23037AD  23351.80064682  .00000686  00000-0  65308-4 0  9993,2 55941  69.9982 174.1833 0002889 266.0009  94.0819 14.98324654 42559,6950.209,96.107,574.082,570.067,0.0
55941.0,STARLINK-5914,PAYLOAD,2023-12-17 22:25:11,14.98325872,0.0002875,69.9983,173.8469,265.6665,94.4165,7.6429e-05,8.19e-06,0.0,0 STARLINK-5914,1 55941U 23037AD  23351.93416619  .00000819  00000-0  76429-4 0  9992,2 55941  69.9983 173.8469 0002875 265.6665  94.4165 14.98325872 42235,6950.206,96.107,574.069,570.072,0.0
55941.0,STARLINK-5914,PAYLOAD,2023-12-18 14:26:32,14.98330872,0.0002969,69.9982,172.1641,268.8299,91.252,8.0215e-05,8.64e-06,0.0,0 STARLINK-5914,1 55941U 23037AD  23352.60176369  .00000864  00000-0  80215-4 0  9990,2 55941  69.9982 172.1641 0002969 268.8299  91.2520 14.98330872 42337,6950.19,96.107,574.119,569.992,0.0
55941.0,STARLINK-5914,PAYLOAD,2023-12-18 19:14:56,14.98332962,0.0002949,69.9983,171.6594,268.4962,91.5859,9.9285e-05,1.092e-05,0.0,0 STARLINK-5914,1 55941U 23037AD  23352.80204163  .00001092  00000-0  99285-4 0  9997,2 55941  69.9983 171.6594 0002949 268.4962  91.5859 14.98332962 42701,6950.184,96.107,574.098,569.999,0.0
55941.0,STARLINK-5914,PAYLOAD,2023-12-18 20:51:04,14.98333495,0.0002941,69.9983,171.4912,268.1821,91.9001,0.00010349,1.142e-05,0.0,0 STARLINK-5914,1 55941U 23037AD  23352.86880103  .00001142  00000-0  10349-3 0  9996,2 55941  69.9983 171.4912 0002941 268.1821  91.9001 14.98333495 42374,6950.182,96.107,574.091,570.003,0.0
55941.0,STARLINK-5914,PAYLOAD,2023-12-19 14:28:33,14.9833224,0.0002891,69.9985,169.6402,266.4859,93.597,1.4688e-05,8.2e-07,0.0,0 STARLINK-5914,1 55941U 23037AD  23353.60316293  .00000082  00000-0  14688-4 0  9996,2 55941  69.9985 169.6402 0002891 266.4859  93.5970 14.98332240 42487,6950.186,96.107,574.06,570.042,0.0
55941.0,STARLINK-5914,PAYLOAD,2023-12-19 19:16:57,14.98331745,0.0002899,69.9986,169.1352,267.0878,92.995,8.2836e-06,6e-08,0.0,0 STARLINK-5914,1 55941U 23037AD  23353.80344307  .00000006  00000-0  82836-5 0  9992,2 55941  69.9986 169.1352 0002899 267.0878  92.9950 14.98331745 42854,6950.187,96.107,574.067,570.038,0.0
55941.0,STARLINK-5914,PAYLOAD,2023-12-20 14:30:34,14.98332605,0.000283,69.9991,167.1161,263.8262,96.2574,-5.6614e-05,-7.68e-06,0.0,0 STARLINK-5914,1 55941U 23037AD  23354.60456289 -.00000768  00000-0 -56614-4 0  9995,2 55941  69.9991 167.1161 0002830 263.8262  96.2574 14.98332605 42633,6950.185,96.107,574.017,570.083,0.0
55941.0,STARLINK-5914,PAYLOAD,2023-12-20 19:18:58,14.98331504,0.0002838,69.9991,166.6112,263.5975,96.486,-6.4411e-05,-8.61e-06,0.0,0 STARLINK-5914,1 55941U 23037AD  23354.80484345 -.00000861  00000-0 -64411-4 0  9999,2 55941  69.9991 166.6112 0002838 263.5975  96.4860 14.98331504 43008,6950.188,96.107,574.026,570.081,0.0
55941.0,STARLINK-5914,PAYLOAD,2023-12-20 20:55:06,14.98331572,0.0002849,69.999,166.4428,264.6467,95.4367,-6.2922e-05,-8.44e-06,0.0,0 STARLINK-5914,1 55941U 23037AD  23354.87160335 -.00000844  00000-0 -62922-4 0  9992,2 55941  69.9990 166.4428 0002849 264.6467  95.4367 14.98331572 42673,6950.188,96.107,574.033,570.073,0.0
55941.0,STARLINK-5914,PAYLOAD,2023-12-21 14:32:35,14.98330575,0.0002896,69.9989,164.5907,265.8699,94.2129,-4.4792e-06,-1.46e-06,0.0,0 STARLINK-5914,1 55941U 23037AD  23355.60596152 -.00000146  00000-0 -44792-5 0  9995,2 55941  69.9989 164.5907 0002896 265.8699  94.2129 14.98330575 42781,6950.191,96.107,574.069,570.043,0.0
55941.0,STARLINK-5914,PAYLOAD,2023-12-21 20:57:07,14.98330219,0.0002901,69.999,163.9176,266.3703,93.7124,-7.5124e-06,-1.83e-06,0.0,0 STARLINK-5914,1 55941U 23037AD  23355.87300177 -.00000183  00000-0 -75124-5 0  9998,2 55941  69.9990 163.9176 0002901 266.3703  93.7124 14.98330219 42822,6950.192,96.107,574.073,570.041,0.0
55941.0,STARLINK-5914,PAYLOAD,2023-12-22 14:34:35,14.98329687,0.000295,69.9991,162.0663,266.0604,94.0218,2.2658e-05,1.77e-06,0.0,0 STARLINK-5914,1 55941U 23037AD  23356.60736103  .00000177  00000-0  22658-4 0  9996,2 55941  69.9991 162.0663 0002950 266.0604  94.0218 14.98329687 42932,6950.194,96.107,574.109,570.009,0.0
55941.0,STARLINK-5914,PAYLOAD,2023-12-22 20:59:08,14.9833022,0.0002955,69.9992,161.3932,266.4757,93.6064,2.6624e-05,2.25e-06,0.0,0 STARLINK-5914,1 55941U 23037AD  23356.87440055  .00000225  00000-0  26624-4 0  9994,2 55941  69.9992 161.3932 0002955 266.4757  93.6064 14.98330220 42975,6950.192,96.107,574.111,570.003,0.0
55941.0,STARLINK-5914,PAYLOAD,2023-12-23 14:36:36,14.98330416,0.0002944,69.9994,159.5421,266.7163,93.366,7.1788e-06,-7e-08,0.0,0 STARLINK-5914,1 55941U 23037AD  23357.60876081 -.00000007  00000-0  71788-5 0  9999,2 55941  69.9994 159.5421 0002944 266.7163  93.3660 14.98330416 43080,6950.192,96.107,574.103,570.01,0.0
55941.0,STARLINK-5914,PAYLOAD,2023-12-23 21:01:09,14.98332155,0.0003056,69.9991,158.8673,273.1871,86.8938,2.606e-05,2.18e-06,0.0,0 STARLINK-5914,1 55941U 23037AD  23357.87579929  .00000218  00000-0  26060-4 0  9994,2 55941  69.9991 158.8673 0003056 273.1871  86.8938 14.98332155 43123,6950.186,96.107,574.175,569.927,0.0
55941.0,STARLINK-5914,PAYLOAD,2023-12-24 14:38:37,14.98331841,0.0003057,69.9992,157.016,273.1292,86.9517,1.1867e-05,4.9e-07,0.0,0 STARLINK-5914,1 55941U 23037AD  23358.61015894  .00000049  00000-0  11867-4 0  9994,2 55941  69.9992 157.0160 0003057 273.1292  86.9517 14.98331841 43231,6950.187,96.107,574.177,569.928,0.0
55941.0,STARLINK-5914,PAYLOAD,2023-12-24 21:03:09,14.98333446,0.0003052,69.9993,156.3428,273.4854,86.5956,2.9435e-05,2.58e-06,0.0,0 STARLINK-5914,1 55941U 23037AD  23358.87719704  .00000258  00000-0  29435-4 0  9995,2 55941  69.9993 156.3428 0003052 273.4854  86.5956 14.98333446 43273,6950.182,96.107,574.168,569.926,0.0
55941.0,STARLINK-5914,PAYLOAD,2023-12-25 14:40:38,14.98329982,0.0003018,69.9994,154.4916,274.1767,85.9047,-8.3487e-06,-1.93e-06,0.0,0 STARLINK-5914,1 55941U 23037AD  23359.61155965 -.00000193  00000-0 -83487-5 0  9999,2 55941  69.9994 154.4916 0003018 274.1767  85.9047 14.98329982 43384,6950.193,96.107,574.156,569.96,0.0
55941.0,STARLINK-5914,PAYLOAD,2023-12-25 21:05:10,14.98332122,0.0002934,69.9995,153.8182,266.4606,93.6217,2.4492e-05,1.99e-06,0.0,0 STARLINK-5914,1 55941U 23037AD  23359.87859671  .00000199  00000-0  24492-4 0  9996,2 55941  69.9995 153.8182 0002934 266.4606  93.6217 14.98332122 43425,6950.186,96.107,574.091,570.012,0.0
55941.0,STARLINK-5914,PAYLOAD,2023-12-26 14:42:39,14.98328606,0.0003012,69.9996,151.9674,267.4753,92.6061,-3.3426e-05,-4.92e-06,0.0,0 STARLINK-5914,1 55941U 23037AD  23360.61295990 -.00000492  00000-0 -33426-4 0  9993,2 55941  69.9996 151.9674 0003012 267.4753  92.6061 14.98328606 43533,6950.197,96.107,574.156,569.969,0.0
55941.0,STARLINK-5914,PAYLOAD,2023-12-26 19:31:03,14.9833081,0.0003072,69.9995,151.4624,269.8321,90.2486,-1.7043e-05,-2.96e-06,0.0,0 STARLINK-5914,1 55941U 23037AD  23360.81323794 -.00000296  00000-0 -17043-4 0  9998,2 55941  69.9995 151.4624 0003072 269.8321  90.2486 14.98330810 43563,6950.19,96.107,574.19,569.92,0.0
55941.0,STARLINK-5914,PAYLOAD,2023-12-27 11:32:24,14.98328093,0.0003063,69.9996,149.7795,268.9799,91.1009,1.7015e-05,1.1e-06,0.0,0 STARLINK-5914,1 55941U 23037AD  23361.48083862  .00000110  00000-0  17015-4 0  9993,2 55941  69.9996 149.7795 0003063 268.9799  91.1009 14.98328093 44003,6950.199,96.107,574.193,569.935,0.0
55941.0,STARLINK-5914,PAYLOAD,2023-12-27 14:44:40,14.98338703,0.000292,69.9996,149.4429,265.9647,94.1178,-0.00014108,-1.776e-05,0.0,0 STARLINK-5914,1 55941U 23037AD  23361.61435651 -.00001776  00000-0 -14108-3 0  9995,2 55941  69.9996 149.4429 0002920 265.9647  94.1178 14.98338703 43686,6950.166,96.106,574.06,570.002,0.0
55941.0,STARLINK-5914,PAYLOAD,2023-12-27 19:33:04,14.98339522,0.0002859,69.9999,148.9383,264.6905,95.3927,-0.00014126,-1.778e-05,0.0,0 STARLINK-5914,1 55941U 23037AD  23361.81463500 -.00001778  00000-0 -14126-3 0  9993,2 55941  69.9999 148.9383 0002859 264.6905  95.3927 14.98339522 44053,6950.163,96.106,574.015,570.041,0.0
55941.0,STARLINK-5914,PAYLOAD,2023-12-28 11:34:25,14.98327697,0.0002843,70.0002,147.2557,264.0252,96.0583,-9.5553e-06,-2.07e-06,0.0,0 STARLINK-5914,1 55941U 23037AD  23362.48223985 -.00000207  00000-0 -95553-5 0  9999,2 55941  70.0002 147.2557 0002843 264.0252  96.0583 14.98327697 44155,6950.2,96.107,574.041,570.089,0.0
55941.0,STARLINK-5914,PAYLOAD,2023-12-28 14:46:41,14.98327071,0.000284,70.0001,146.919,262.8688,97.2148,-9.0234e-06,-2.01e-06,0.0,0 STARLINK-5914,1 55941U 23037AD  23362.61576029 -.00000201  00000-0 -90234-5 0  9999,2 55941  70.0001 146.9190 0002840 262.8688  97.2148 14.98327071 43839,6950.202,96.107,574.041,570.093,0.0
55941.0,STARLINK-5914,PAYLOAD,2023-12-28 19:35:05,14.98328312,0.0002894,69.9998,146.4134,267.0048,93.078,8.7166e-06,1.1e-07,0.0,0 STARLINK-5914,1 55941U 23037AD  23362.81603954  .00000011  00000-0  87166-5 0  9996,2 55941  69.9998 146.4134 0002894 267.0048  93.0780 14.98328312 43868,6950.198,96.107,574.074,570.052,0.0
